     4.02           NAVIGATION DATA     M                   RINEX VERSION / TYPE
cssrlib             Unknown             20250218 135315 UTC PGM / RUN BY / DATE 
    18                                                      LEAP SECONDS        
                                                            END OF HEADER       
C28 2025 02 15 14 00 00 3.434402169660E-04 4.353850613370E-12 0.000000000000E+00
     3.569126129150E-03-6.377343750000E+01 3.882661728446E-09-1.768514890521E+00
    -3.141351044178E-06 1.753022661433E-04 1.026503741741E-05 5.282634130196E+03
     5.688000000000E+05 5.122274160385E-08 3.139775132214E+00 2.142041921616E-08
     9.556904400229E-01 1.511914062500E+02-9.579498072775E-01-6.877250750813E-09
    -5.552016978078E-10-2.934169373950E-14 3.000000000000E+00 5.682000000000E+05
     0.000000000000E+00-5.000000000000E+00 0.000000000000E+00-1.000000000000E+00
                       -2.619344741106E-09-2.910383045673E-09-9.662471711636E-09
     3.000000000000E+00 0.000000000000E+00 0.000000000000E+00 1.800000000000E+01
     5.688000000000E+05                                       1.800000000000E+01
> EPH C20 CNV2
C20 2025 02 15 14 00 00-8.602761663496E-04 4.465761094252E-12 0.000000000000E+00
     1.241207122803E-03-2.914062500000E+00 3.775692987054E-09 3.925471613135E-01
    -1.043081283569E-07 7.922583608888E-04 2.636574208736E-06 5.282628151176E+03
     5.688000000000E+05-1.024454832077E-08-1.049124445204E+00-7.450580596924E-09
     9.817227417442E-01 3.159921875000E+02-4.719227651346E-01-7.035293048194E-09
     1.237551548989E-10-1.397327317015E-14 3.000000000000E+00 5.682000000000E+05
     0.000000000000E+00-5.000000000000E+00-1.000000000000E+00-1.000000000000E+00
                       -2.677552402020E-09 1.286389306188E-08 1.164153218269E-10
     1.000000000000E+00 0.000000000000E+00 0.000000000000E+00 1.800000000000E+01
     5.688000000000E+05                                       1.800000000000E+01
> EPH C33 CNV2
C33 2025 02 15 14 00 00-9.527715737931E-04-2.613909089177E-12 0.000000000000E+00
    -1.342773437500E-03-2.816406250000E+00 3.859982212324E-09 2.708642305504E+00
    -1.871958374977E-07 4.596592043526E-04 2.237968146801E-06 5.282625738528E+03
     5.688000000000E+05-5.587935447693E-09-1.056765420670E+00-1.769512891769E-08
     9.805591981465E-01 3.253203125000E+02-3.722414772831E-01-7.097795651679E-09
     1.408987261404E-10 1.722135070892E-15 3.000000000000E+00 5.682000000000E+05
     0.000000000000E+00-5.000000000000E+00 0.000000000000E+00-1.000000000000E+00
                       -2.619344741106E-09-4.243338480592E-08 3.370223566890E-08
    -1.000000000000E+00 0.000000000000E+00 0.000000000000E+00 1.800000000000E+01
     5.688000000000E+05                                       1.800000000000E+01
> EPH C38 CNV2
C38 2025 02 15 14 00 00 2.088509500027E-04 2.092548356813E-12 0.000000000000E+00
     2.587127685547E-02 3.327812500000E+02 1.079330672741E-09-2.652947202403E+00
     1.097563654184E-05 2.209653204773E-03 8.902512490749E-06 6.493220158245E+03
     5.688000000000E+05 8.847564458847E-08-1.687155362782E+00-9.778887033463E-08
     1.011663287631E+00-1.456250000000E+01-2.362749652018E+00-2.232771575327E-09
     8.895013370153E-10-8.026457381042E-14 2.000000000000E+00 5.682000000000E+05
     0.000000000000E+00-5.000000000000E+00-1.000000000000E+00-1.000000000000E+00
                       -2.619344741106E-09 5.238689482212E-09-5.529727786779E-09
     1.000000000000E+00 0.000000000000E+00 0.000000000000E+00 1.800000000000E+01
     5.688000000000E+05                                       1.800000000000E+01
> EPH C40 CNV2
C40 2025 02 15 14 00 00-1.212343922816E-04-2.520650355109E-12 0.000000000000E+00
    -2.048492431641E-03-2.374335937500E+02 1.689891819349E-09 1.539207311420E-01
    -7.895752787590E-06 4.132027563173E-03 1.571141183376E-06 6.493178350530E+03
     5.688000000000E+05 1.396983861923E-08 2.563110084875E+00 4.656612873077E-08
     9.707845647080E-01 1.941171875000E+02-3.129267495626E+00-2.582607575972E-09
    -7.862827518327E-10 1.249092905849E-14 2.000000000000E+00 5.682000000000E+05
     0.000000000000E+00-5.000000000000E+00-1.000000000000E+00-1.000000000000E+00
                       -2.735760062933E-09 1.746229827404E-09-7.450580596924E-09
     2.000000000000E+00 0.000000000000E+00 0.000000000000E+00 1.800000000000E+01
     5.688000000000E+05                                       1.800000000000E+01
> EPH C39 CNV2
C39 2025 02 15 14 00 00-1.085863914341E-05-7.549516567451E-14 0.000000000000E+00
    -2.637529373169E-02-3.658906250000E+02 4.841273087028E-10 1.962784351310E+00
    -1.132767647505E-05 3.572219051421E-03 3.184657543898E-05 6.493664855824E+03
     5.688000000000E+05 5.960464477539E-08 4.155465273751E-01-1.117587089539E-07
     9.643114667347E-01-7.423984375000E+02-2.828464770054E+00-1.660962042879E-09
    -1.716142912812E-10 8.139813107228E-14 2.000000000000E+00 5.682000000000E+05
     0.000000000000E+00-5.000000000000E+00-1.000000000000E+00-1.000000000000E+00
                       -2.619344741106E-09 9.662471711636E-09-6.693881005049E-09
    -1.000000000000E+00 0.000000000000E+00 0.000000000000E+00 1.800000000000E+01
     5.688000000000E+05                                       1.800000000000E+01
> EPH R21 FDMA
R21 2025 02 15 14 15 00-1.770574599504E-04-3.637978807092E-12 5.688180000000E+05
    -1.069360742188E+04-2.019270896912E+00-2.793967723846E-09 0.000000000000E+00
     1.516120214844E+04 1.303203582764E+00 0.000000000000E+00 4.000000000000E+00
     1.749607373047E+04-2.365406036377E+00-9.313225746155E-10 0.000000000000E+00
     2.470000000000E+02 9.313225746155E-10 3.000000000000E+00                   
> EPH R06 FDMA
R06 2025 02 15 14 15 00-2.017682418227E-04-9.094947017729E-13 5.688180000000E+05
    -7.457026367188E+03 2.850341796875E-02-1.862645149231E-09 0.000000000000E+00
     1.737111865234E+04-2.348970413208E+00-9.313225746155E-10-4.000000000000E+00
     1.712882275391E+04 2.392194747925E+00-9.313225746155E-10 0.000000000000E+00
     1.830000000000E+02 2.793967723846E-09 3.000000000000E+00                   
> EPH R20 FDMA
R20 2025 02 15 14 15 00-1.259408891201E-04 0.000000000000E+00 5.688180000000E+05
    -2.216982080078E+04-1.483154296875E-01-4.656612873077E-09 0.000000000000E+00
     1.248315722656E+04 3.533182144165E-01 0.000000000000E+00 2.000000000000E+00
     2.152651367188E+03-3.588815689087E+00 0.000000000000E+00 0.000000000000E+00
     2.470000000000E+02 4.656612873077E-09 3.000000000000E+00                   
> EPH R05 FDMA
R05 2025 02 15 14 15 00 1.453738659620E-04 9.094947017729E-13 5.688180000000E+05
    -1.039183349609E+04-9.316444396973E-03-1.862645149231E-09 0.000000000000E+00
    -5.225872070312E+03-3.108859062195E+00 9.313225746155E-10 1.000000000000E+00
     2.271486621094E+04-7.220315933228E-01-1.862645149231E-09 0.000000000000E+00
     2.470000000000E+02 2.793967723846E-09 3.000000000000E+00                   
> EPH R07 FDMA
R07 2025 02 15 14 15 00 1.008296385407E-04 9.094947017729E-13 5.688180000000E+05
    -1.142437011719E+03 1.912651062012E-01-9.313225746155E-10 0.000000000000E+00
     2.538042041016E+04-3.516187667847E-01-1.862645149231E-09 5.000000000000E+00
     2.614204589844E+03 3.555960655212E+00 0.000000000000E+00 0.000000000000E+00
     2.470000000000E+02 1.862645149231E-09 1.000000000000E+00                   
> EPH R22 FDMA
R22 2025 02 15 14 15 00-6.061419844627E-05-9.094947017729E-13 5.688180000000E+05
     7.875033203125E+03-2.769235610962E+00 0.000000000000E+00 0.000000000000E+00
     8.128061035156E+03 1.450705528259E+00 0.000000000000E+00-3.000000000000E+00
     2.288593896484E+04 4.396047592163E-01-1.862645149231E-09 0.000000000000E+00
     1.830000000000E+02 3.725290298462E-09 3.000000000000E+00                   
> EPH C27 CNV1
C27 2025 02 15 14 00 00 4.376038559712E-04 5.075939668586E-12 0.000000000000E+00
    -2.905845642090E-03-7.128906250000E+01 3.820337703828E-09 1.680486307663E+00
    -3.480352461338E-06 6.231091101654E-04 9.808689355850E-06 5.282622232783E+03
     5.688000000000E+05 4.190951585770E-08 3.140049394975E+00-1.024454832077E-08
     9.558146863868E-01 1.616757812500E+02 1.204100307474E+00-6.883858168895E-09
    -5.944890485694E-10 3.583784881704E-14 3.000000000000E+00 5.688000000000E+05
     0.000000000000E+00-5.000000000000E+00 0.000000000000E+00-1.000000000000E+00
    -5.820766091347E-10                   -1.396983861923E-09-9.196810424328E-09
     0.000000000000E+00 0.000000000000E+00 0.000000000000E+00 1.800000000000E+01
     5.688000000000E+05                                       1.800000000000E+01
> EPH C32 CNV1
C32 2025 02 15 14 00 00-9.240760700777E-04-1.643041258603E-11 0.000000000000E+00
    -1.392364501953E-04-2.339843750000E+00 3.843910114285E-09 1.684268508270E+00
    -1.089647412300E-07 6.589043186978E-04 2.401880919933E-06 5.282627163268E+03
     5.688000000000E+05 0.000000000000E+00-1.056651784851E+00-2.980232238770E-08
     9.805270944092E-01 3.214765625000E+02-9.226863717852E-01-7.079759186102E-09
     1.142904749427E-10-1.046360549403E-15 3.000000000000E+00 5.688000000000E+05
     0.000000000000E+00-5.000000000000E+00 0.000000000000E+00-1.000000000000E+00
    -5.820766091347E-10                   -2.793967723846E-09-3.667082637548E-09
     1.000000000000E+00 0.000000000000E+00 0.000000000000E+00 1.800000000000E+01
     5.688000000000E+05                                       1.800000000000E+01
> EPH C30 CNV1
